[
    {
        "Altitude(m)": 624790.7702064292,
        "Argument of Periapsis(deg)": 0.0,
        "Eccentricity": 0.0,
        "Inclination(deg)": 60.0,
        "Latitude(deg)": -59.147040237274936,
        "Longitude(deg)": 111.03457499159508,
        "Mean Anomaly(deg)": -81.8182,
        "RAAN(deg)": 285.0,
        "Satellite Name": "Test1 1271",
        "Satellite Number": 1271,
        "Semi-Major Axis(m)": 6980739.136638005,
        "Time(s)": 0
    },
    {
        "Altitude(m)": 624737.425329872,
        "Argument of Periapsis(deg)": 0.00010418945913296404,
        "Eccentricity": 0.0,
        "Inclination(deg)": 60.0,
        "Latitude(deg)": -58.99449575606812,
        "Longitude(deg)": 112.15407477757995,
        "Mean Anomaly(deg)": -81.19809385453816,
        "RAAN(deg)": 284.9995799508602,
        "Satellite Name": "Test1 1271",
        "Satellite Number": 1271,
        "Semi-Major Axis(m)": 6980739.136638005,
        "Time(s)": 10
    }
]